STARLINK-30394
1 57810U 23138C   26061.16668981  .01193870  00000+0  49350-1 0  9998
2 57810  42.9986 276.4141 0001880 260.1255 353.2296 15.20377849  5814
STARLINK-30434
1 57875U 23144M   26061.16668981  .02061412  00000+0  84811-1 0  9994
2 57875  43.0007 327.7316 0001358 291.6224 165.9557 15.20355455  5716
STARLINK-31094
1 58593U 23200E   26061.16668981  .01279116  00000+0  52575-1 0  9998
2 58593  43.0009 210.9437 0001389 280.1306 126.8065 15.20355259  5713
